1 41181U 15081C   19273.79783664 -.00000093 +00000-0 +18871-4 0  9994
2 41181 047.0013 110.9379 0002081 334.7407 025.3370 14.43357962199240
1 41181U 15081C   19274.00550645 -.00000092  00000-0  19002-4 0  9996
2 41181  47.0012 109.9802 0002070 335.6983  24.3798 14.43358004199381
1 41181U 15081C   19274.90540881 -.00000099 +00000-0 +17129-4 0  9991
2 41181 047.0013 105.8299 0002022 339.1534 020.9263 14.43358135199402
1 41181U 15081C   19275.04385532 -.00000099  00000-0  16956-4 0  9994
2 41181  47.0013 105.1914 0002017 339.7997  20.2803 14.43358163199530
1 41181U 15081C   19275.59764134 -.00000103 +00000-0 +16010-4 0  9990
2 41181 047.0013 102.6373 0001989 341.8503 018.2305 14.43358229199509
1 41181U 15081C   19276.70521325 -.00000092  00000-0  18961-4 0  9991
2 41181  47.0013  97.5292 0001912 346.0235  14.0591 14.43358451199773
1 41181U 15081C   19276.91288300 -.00000089 +00000-0 +20055-4 0  9990
2 41181 047.0013 096.5715 0001896 346.9117 013.1713 14.43358497199698
1 41181U 15081C   19277.88200836 -.00000084  00000-0  21570-4 0  9993
2 41181  47.0014  92.1018 0001841 350.8443   9.2403 14.43358666199941
1 41181U 15081C   19278.92035683 -.00000086 +00000-0 +20745-4 0  9990
2 41181 047.0015 087.3129 0001781 355.2365 004.8497 14.43358813199988
1 41181U 15081C   19278.92035683 -.00000086  00000-0  20745-4 0  9990
2 41181  47.0015  87.3129 0001781 355.2365   4.8497 14.43358813200093
1 41181U 15081C   19279.88948202 -.00000086 +00000-0 +20796-4 0  9992
2 41181 047.0017 082.8433 0001733 359.5648 000.5230 14.43358936200129
1 41181U 15081C   19280.51249099 -.00000085  00000-0  21270-4 0  9999
2 41181  47.0018  79.9699 0001697   2.1397 357.9490 14.43359021200327
1 41181U 15081C   19280.85860707 -.00000080 +00000-0 +22568-4 0  9997
2 41181 047.0019 078.3738 0001665 003.5738 356.5154 14.43359092200267
1 41181U 15081C   19281.75850884 -.00000076  00000-0  23854-4 0  9996
2 41181  47.0020  74.2235 0001613   7.6173 352.4731 14.43359236200500
1 41181U 15081C   19281.82773206 -.00000076 +00000-0 +23683-4 0  9996
2 41181 047.0021 073.9043 0001609 007.9540 352.1365 14.43359242200406
1 41181U 15081C   19282.79685694 -.00000077  00000-0  23408-4 0  9992
2 41181  47.0022  69.4348 0001562  12.7167 347.3752 14.43359405200656
1 41181U 15081C   19282.86608014 -.00000078 +00000-0 +23207-4 0  9999
2 41181 047.0022 069.1156 0001559 013.0865 347.0055 14.43359416200559
1 41181U 15081C   19283.83520482 -.00000087 +00000-0 +20656-4 0  9994
2 41181 047.0024 064.6462 0001496 017.6737 342.4194 14.43359555200691
1 41181U 15081C   19283.90442801 -.00000088  00000-0  20314-4 0  9992
2 41181  47.0024  64.3270 0001493  17.9623 342.1309 14.43359566200810
1 41181U 15081C   19284.87355264 -.00000088 +00000-0 +20166-4 0  9990
2 41181 047.0025 059.8576 0001440 022.9311 337.1633 14.43359706200844
